38953,BEIDOU-2 G6,2012,1436.14,3800.0,+,2.38,Active,1,GSO,PRC,China,Government/Military,Navigation (Global or Regional Positioning),Long March,1 38953U 12059A   24099.52851807 -.00000181  00000+0  00000+0 0  9994,2 38953   2.3823  80.9311 0011021 305.4946  85.0879  1.00268357 41897,1.00268357,0.0011021,GSO
39727,LUCH-5V,2014,1436.06,1148.0,+,3.12,Active,1,GSO,Kazakhstan,Russia/USSR,Government,Communications,Proton,1 39727U 14023A   24099.53060661 -.00000275  00000+0  00000+0 0  9992,2 39727   3.1249  76.4232 0001853 308.0659  98.5174  1.00273900 36343,1.002739,0.0001853,GSO
40746,WGS F7 (USA 263),2015,1436.11,5990.0,+,0.02,Active,1,GSO,USA,USA,Military,Communications,Delta,1 40746U 15036A   24099.57460359  .00000009  00000+0  00000+0 0  9996,2 40746   0.0183 236.8567 0000191 247.2703  95.0224  1.00271474 31853,1.00271474,1.91e-05,GEO
