<?xml version="1.0" encoding="utf-8"?>
<ndm xmlns:xsi="http://www.w3.org/2001/XMLSchema-instance" xsi:noNamespaceSchemaLocation="https://sanaregistry.org/r/ndmxml_unqualified/ndmxml-3.0.0-master-3.0.xsd"><omm id="CCSDS_OMM_VERS" version="3.0"><header><COMMENT>GENERATED VIA SPACE-TRACK.ORG API</COMMENT><CREATION_DATE>2024-04-08T14:46:18</CREATION_DATE><ORIGINATOR>18 SPCS</ORIGINATOR></header><body><segment><metadata><OBJECT_NAME>BEIDOU 16</OBJECT_NAME><OBJECT_ID>2012-059A</OBJECT_ID><CENTER_NAME>EARTH</CENTER_NAME><REF_FRAME>TEME</REF_FRAME><TIME_SYSTEM>UTC</TIME_SYSTEM><MEAN_ELEMENT_THEORY>SGP4</MEAN_ELEMENT_THEORY></metadata><data><meanElements><EPOCH>2024-04-08T12:41:03.961248</EPOCH><MEAN_MOTION>1.00268357</MEAN_MOTION><ECCENTRICITY>0.00110210</ECCENTRICITY><INCLINATION>2.3823</INCLINATION><RA_OF_ASC_NODE>80.9311</RA_OF_ASC_NODE><ARG_OF_PERICENTER>305.4946</ARG_OF_PERICENTER><MEAN_ANOMALY>85.0879</MEAN_ANOMALY></meanElements><tleParameters><EPHEMERIS_TYPE>0</EPHEMERIS_TYPE><CLASSIFICATION_TYPE>U</CLASSIFICATION_TYPE><NORAD_CAT_ID>38953</NORAD_CAT_ID><ELEMENT_SET_NO>999</ELEMENT_SET_NO><REV_AT_EPOCH>4203</REV_AT_EPOCH><BSTAR>0.00000000000000</BSTAR><MEAN_MOTION_DOT>-0.00000180</MEAN_MOTION_DOT><MEAN_MOTION_DDOT>0.0000000000000</MEAN_MOTION_DDOT></tleParameters><userDefinedParameters><USER_DEFINED parameter="SEMIMAJOR_AXIS">42165.693</USER_DEFINED><USER_DEFINED parameter="PERIOD">1436.146</USER_DEFINED><USER_DEFINED parameter="APOAPSIS">35834.029</USER_DEFINED><USER_DEFINED parameter="PERIAPSIS">35741.087</USER_DEFINED><USER_DEFINED parameter="OBJECT_TYPE">PAYLOAD</USER_DEFINED><USER_DEFINED parameter="RCS_SIZE">LARGE</USER_DEFINED><USER_DEFINED parameter="COUNTRY_CODE">PRC</USER_DEFINED><USER_DEFINED parameter="LAUNCH_DATE">2012-10-25</USER_DEFINED><USER_DEFINED parameter="SITE">XSC</USER_DEFINED><USER_DEFINED parameter="DECAY_DATE"/><USER_DEFINED parameter="FILE">4269470</USER_DEFINED><USER_DEFINED parameter="GP_ID">254018111</USER_DEFINED></userDefinedParameters></data></segment></body></omm><omm id="CCSDS_OMM_VERS" version="3.0"><header><COMMENT>GENERATED VIA SPACE-TRACK.ORG API</COMMENT><CREATION_DATE>2024-04-08T14:36:17</CREATION_DATE><ORIGINATOR>18 SPCS</ORIGINATOR></header><body><segment><metadata><OBJECT_NAME>LUCH 5V</OBJECT_NAME><OBJECT_ID>2014-023A</OBJECT_ID><CENTER_NAME>EARTH</CENTER_NAME><REF_FRAME>TEME</REF_FRAME><TIME_SYSTEM>UTC</TIME_SYSTEM><MEAN_ELEMENT_THEORY>SGP4</MEAN_ELEMENT_THEORY></metadata><data><meanElements><EPOCH>2024-04-08T12:44:04.411104</EPOCH><MEAN_MOTION>1.00273900</MEAN_MOTION><ECCENTRICITY>0.00018530</ECCENTRICITY><INCLINATION>3.1249</INCLINATION><RA_OF_ASC_NODE>76.4232</RA_OF_ASC_NODE><ARG_OF_PERICENTER>308.0659</ARG_OF_PERICENTER><MEAN_ANOMALY>98.5174</MEAN_ANOMALY></meanElements><tleParameters><EPHEMERIS_TYPE>0</EPHEMERIS_TYPE><CLASSIFICATION_TYPE>U</CLASSIFICATION_TYPE><NORAD_CAT_ID>39727</NORAD_CAT_ID><ELEMENT_SET_NO>999</ELEMENT_SET_NO><REV_AT_EPOCH>55449</REV_AT_EPOCH><BSTAR>0.00000000000000</BSTAR><MEAN_MOTION_DOT>-0.00000275</MEAN_MOTION_DOT><MEAN_MOTION_DDOT>0.0000000000000</MEAN_MOTION_DDOT></tleParameters><userDefinedParameters><USER_DEFINED parameter="SEMIMAJOR_AXIS">42164.139</USER_DEFINED><USER_DEFINED parameter="PERIOD">1436.067</USER_DEFINED><USER_DEFINED parameter="APOAPSIS">35793.817</USER_DEFINED><USER_DEFINED parameter="PERIAPSIS">35778.191</USER_DEFINED><USER_DEFINED parameter="OBJECT_TYPE">PAYLOAD</USER_DEFINED><USER_DEFINED parameter="RCS_SIZE">LARGE</USER_DEFINED><USER_DEFINED parameter="COUNTRY_CODE">CIS</USER_DEFINED><USER_DEFINED parameter="LAUNCH_DATE">2014-04-28</USER_DEFINED><USER_DEFINED parameter="SITE">TTMTR</USER_DEFINED><USER_DEFINED parameter="DECAY_DATE"/><USER_DEFINED parameter="FILE">4269408</USER_DEFINED><USER_DEFINED parameter="GP_ID">254016190</USER_DEFINED></userDefinedParameters></data></segment></body></omm><omm id="CCSDS_OMM_VERS" version="3.0"><header><COMMENT>GENERATED VIA SPACE-TRACK.ORG API</COMMENT><CREATION_DATE>2024-04-08T14:46:18</CREATION_DATE><ORIGINATOR>18 SPCS</ORIGINATOR></header><body><segment><metadata><OBJECT_NAME>WGS 7 (USA 263)</OBJECT_NAME><OBJECT_ID>2015-036A</OBJECT_ID><CENTER_NAME>EARTH</CENTER_NAME><REF_FRAME>TEME</REF_FRAME><TIME_SYSTEM>UTC</TIME_SYSTEM><MEAN_ELEMENT_THEORY>SGP4</MEAN_ELEMENT_THEORY></metadata><data><meanElements><EPOCH>2024-04-08T13:47:25.750176</EPOCH><MEAN_MOTION>1.00271474</MEAN_MOTION><ECCENTRICITY>0.00001910</ECCENTRICITY><INCLINATION>0.0183</INCLINATION><RA_OF_ASC_NODE>236.8567</RA_OF_ASC_NODE><ARG_OF_PERICENTER>247.2703</ARG_OF_PERICENTER><MEAN_ANOMALY>95.0224</MEAN_ANOMALY></meanElements><tleParameters><EPHEMERIS_TYPE>0</EPHEMERIS_TYPE><CLASSIFICATION_TYPE>U</CLASSIFICATION_TYPE><NORAD_CAT_ID>40746</NORAD_CAT_ID><ELEMENT_SET_NO>999</ELEMENT_SET_NO><REV_AT_EPOCH>3184</REV_AT_EPOCH><BSTAR>0.00000000000000</BSTAR><MEAN_MOTION_DOT>0.00000009</MEAN_MOTION_DOT><MEAN_MOTION_DDOT>0.0000000000000</MEAN_MOTION_DDOT></tleParameters><userDefinedParameters><USER_DEFINED parameter="SEMIMAJOR_AXIS">42164.819</USER_DEFINED><USER_DEFINED parameter="PERIOD">1436.101</USER_DEFINED><USER_DEFINED parameter="APOAPSIS">35787.489</USER_DEFINED><USER_DEFINED parameter="PERIAPSIS">35785.879</USER_DEFINED><USER_DEFINED parameter="OBJECT_TYPE">PAYLOAD</USER_DEFINED><USER_DEFINED parameter="RCS_SIZE">LARGE</USER_DEFINED><USER_DEFINED parameter="COUNTRY_CODE">US</USER_DEFINED><USER_DEFINED parameter="LAUNCH_DATE">2015-07-24</USER_DEFINED><USER_DEFINED parameter="SITE">AFETR</USER_DEFINED><USER_DEFINED parameter="DECAY_DATE"/><USER_DEFINED parameter="FILE">4269477</USER_DEFINED><USER_DEFINED parameter="GP_ID">254020403</USER_DEFINED></userDefinedParameters></data></segment></body></omm></ndm>
